NORAD_CAT_ID,OBJECT_NAME,OBJECT_TYPE,EPOCH,MEAN_MOTION,ECCENTRICITY,INCLINATION,RA_OF_ASC_NODE,ARG_OF_PERICENTER,MEAN_ANOMALY,BSTAR,MEAN_MOTION_DOT,MEAN_MOTION_DDOT,TLE_LINE0,TLE_LINE1,TLE_LINE2,SEMIMAJOR_AXIS,PERIOD,APOGEE,PERIGEE,DECAYED
52701.0,STARLINK-4003,PAYLOAD,2023-11-14 08:04:17,15.08844638,0.0001595,53.2174,333.5485,94.0312,266.0863,9.0478e-05,1.152e-05,0.0,0 STARLINK-4003,1 52701U 22053AX  23318.33630976  .00001152  00000-0  90478-4 0  9992,2 52701  53.2174 333.5485 0001595  94.0312 266.0863 15.08844638 83547,6917.866,95.437,540.835,538.628,0.0
52701.0,STARLINK-4003,PAYLOAD,2023-11-14 17:36:36,15.08841746,0.000158,53.2173,331.7641,94.2126,265.9046,5.555e-05,5.96e-06,0.0,0 STARLINK-4003,1 52701U 22053AX  23318.73375063  .00000596  00000-0  55550-4 0  9992,2 52701  53.2173 331.7641 0001580  94.2126 265.9046 15.08841746 83176,6917.875,95.437,540.833,538.647,0.0
52701.0,STARLINK-4003,PAYLOAD,2023-11-15 07:55:04,15.0883967,0.0001661,53.2177,329.0912,98.8033,261.3147,-4.7813e-05,-1.049e-05,0.0,0 STARLINK-4003,1 52701U 22053AX  23319.32991353 -.00001049  00000-0 -47813-4 0  9993,2 52701  53.2177 329.0912 0001661  98.8033 261.3147 15.08839670 83690,6917.881,95.438,540.895,538.597,0.0
52701.0,STARLINK-4003,PAYLOAD,2023-11-15 17:27:23,15.08836979,0.0001726,53.2178,327.307,100.3944,259.7243,-8.6228e-05,-1.66e-05,0.0,0 STARLINK-4003,1 52701U 22053AX  23319.72735591 -.00001660  00000-0 -86228-4 0  9999,2 52701  53.2178 327.3070 0001726 100.3944 259.7243 15.08836979 83326,6917.89,95.438,540.949,538.561,0.0
52701.0,STARLINK-4003,PAYLOAD,2023-11-16 10:56:38,15.08837641,0.000161,53.218,324.0354,101.2698,258.8475,0.00012014,1.624e-05,0.0,0 STARLINK-4003,1 52701U 22053AX  23320.45600025  .00001624  00000-0  12014-3 0  9993,2 52701  53.2180 324.0354 0001610 101.2698 258.8475 15.08837641 83869,6917.888,95.438,540.866,538.639,0.0
52701.0,STARLINK-4003,PAYLOAD,2023-11-16 17:18:11,15.08836196,0.0001598,53.2172,322.8454,93.7646,266.3529,9.9031e-05,1.288e-05,0.0,0 STARLINK-4003,1 52701U 22053AX  23320.72096079  .00001288  00000-0  99031-4 0  9992,2 52701  53.2172 322.8454 0001598  93.7646 266.3529 15.08836196 83903,6917.892,95.438,540.862,538.652,0.0
52701.0,STARLINK-4003,PAYLOAD,2023-11-17 07:36:39,15.08838462,0.0001578,53.2179,320.1693,92.8267,267.2906,0.00015697,2.211e-05,0.0,0 STARLINK-4003,1 52701U 22053AX  23321.31712248  .00002211  00000-0  15697-3 0  9993,2 52701  53.2179 320.1693 0001578  92.8267 267.2906 15.08838462 83562,6917.885,95.438,540.842,538.658,0.0
52701.0,STARLINK-4003,PAYLOAD,2023-11-17 17:08:58,15.08841188,0.0001556,53.2181,318.3845,99.7845,260.3323,0.00010989,1.461e-05,0.0,0 STARLINK-4003,1 52701U 22053AX  23321.71456157  .00001461  00000-0  10989-3 0  9996,2 52701  53.2181 318.3845 0001556  99.7845 260.3323 15.08841188 84058,6917.877,95.437,540.818,538.665,0.0
52701.0,STARLINK-4003,PAYLOAD,2023-11-18 07:27:26,15.08842105,0.0001542,53.2178,315.7082,91.9839,268.133,0.0002594,3.843e-05,0.0,0 STARLINK-4003,1 52701U 22053AX  23322.31072099  .00003843  00000-0  25940-3 0  9991,2 52701  53.2178 315.7082 0001542  91.9839 268.1330 15.08842105 84144,6917.874,95.437,540.806,538.672,0.0
52701.0,STARLINK-4003,PAYLOAD,2023-11-18 16:59:45,15.08839266,0.000165,53.2188,313.9236,89.1612,270.9569,5.3972e-05,5.71e-06,0.0,0 STARLINK-4003,1 52701U 22053AX  23322.70816299  .00000571  00000-0  53972-4 0  9994,2 52701  53.2188 313.9236 0001650  89.1612 270.9569 15.08839266 83771,6917.883,95.438,540.889,538.606,0.0
52701.0,STARLINK-4003,PAYLOAD,2023-11-19 08:53:36,15.08843136,0.0001601,53.2186,310.9489,95.2881,264.8294,8.7898e-05,1.111e-05,0.0,0 STARLINK-4003,1 52701U 22053AX  23323.37056285  .00001111  00000-0  87898-4 0  9994,2 52701  53.2186 310.9489 0001601  95.2881 264.8294 15.08843136 84306,6917.871,95.437,540.843,538.628,0.0
52701.0,STARLINK-4003,PAYLOAD,2023-11-19 16:50:32,15.08844829,0.0001598,53.2186,309.4621,95.3461,264.7714,9.4046e-05,1.209e-05,0.0,0 STARLINK-4003,1 52701U 22053AX  23323.70176109  .00001209  00000-0  94046-4 0  9990,2 52701  53.2186 309.4621 0001598  95.3461 264.7714 15.08844829 84358,6917.866,95.437,540.836,538.625,0.0
52701.0,STARLINK-4003,PAYLOAD,2023-11-20 03:58:13,15.08851436,0.0001564,53.218,307.3806,94.8677,265.2494,0.00014636,2.043e-05,0.0,0 STARLINK-4003,1 52701U 22053AX  23324.16543387  .00002043  00000-0  14636-3 0  9990,2 52701  53.2180 307.3806 0001564  94.8677 265.2494 15.08851436 83992,6917.845,95.437,540.792,538.628,0.0
52701.0,STARLINK-4003,PAYLOAD,2023-11-20 08:44:22,15.08858358,0.0001597,53.217,306.4884,94.6286,265.4889,0.00017925,2.567e-05,0.0,0 STARLINK-4003,1 52701U 22053AX  23324.36415219  .00002567  00000-0  17925-3 0  9999,2 52701  53.2170 306.4884 0001597  94.6286 265.4889 15.08858358 84459,6917.824,95.436,540.794,538.584,0.0
52701.0,STARLINK-4003,PAYLOAD,2023-11-21 03:49:01,15.08843739,0.0001757,53.2161,302.918,91.9129,268.2064,0.00011193,1.494e-05,0.0,0 STARLINK-4003,1 52701U 22053AX  23325.15903942  .00001494  00000-0  11193-3 0  9991,2 52701  53.2161 302.9180 0001757  91.9129 268.2064 15.08843739 84142,6917.869,95.437,540.949,538.518,0.0
52701.0,STARLINK-4003,PAYLOAD,2023-11-21 08:35:10,15.08849179,0.0001557,53.217,302.0283,86.0401,274.077,0.0002036,2.955e-05,0.0,0 STARLINK-4003,1 52701U 22053AX  23325.35775708  .00002955  00000-0  20360-3 0  9999,2 52701  53.2170 302.0283 0001557  86.0401 274.0770 15.08849179 84607,6917.852,95.437,540.794,538.64,0.0
52701.0,STARLINK-4003,PAYLOAD,2023-11-22 05:15:10,15.08853888,0.000162,53.2168,298.1624,86.7439,273.3738,0.00026838,3.987e-05,0.0,0 STARLINK-4003,1 52701U 22053AX  23326.21887362  .00003987  00000-0  26838-3 0  9997,2 52701  53.2168 298.1624 0001620  86.7439 273.3738 15.08853888 84302,6917.838,95.437,540.824,538.582,0.0
52701.0,STARLINK-4003,PAYLOAD,2023-11-23 03:30:34,15.08843138,0.0001711,53.2171,293.9991,112.8146,247.3027,5.523e-05,5.91e-06,0.0,0 STARLINK-4003,1 52701U 22053AX  23327.14623424  .00000591  00000-0  55230-4 0  9994,2 52701  53.2171 293.9991 0001711 112.8146 247.3027 15.08843138 84447,6917.871,95.437,540.919,538.552,0.0
52701.0,STARLINK-4003,PAYLOAD,2023-11-24 03:21:22,15.08828034,0.0001707,53.2172,289.5348,110.4108,249.7068,-0.00026755,-4.542e-05,0.0,0 STARLINK-4003,1 52701U 22053AX  23328.13984800 -.00004542  00000-0 -26755-3 0  9993,2 52701  53.2172 289.5348 0001707 110.4108 249.7068 15.08828034 84597,6917.917,95.438,540.963,538.601,0.0
52701.0,STARLINK-4003,PAYLOAD,2023-11-24 06:32:09,15.08809254,0.0002026,53.2188,288.9447,116.7854,243.3346,0.00028507,4.248e-05,0.0,0 STARLINK-4003,1 52701U 22053AX  23328.27233656  .00004248  00000-0  28507-3 0  9992,2 52701  53.2188 288.9447 0002026 116.7854 243.3346 15.08809254 84614,6917.974,95.439,541.241,538.438,0.0
52701.0,STARLINK-4003,PAYLOAD,2023-11-25 03:12:09,15.08834006,0.0001869,53.2181,285.0819,97.1357,262.9848,0.00020193,2.927e-05,0.0,0 STARLINK-4003,1 52701U 22053AX  23329.13344835  .00002927  00000-0  20193-3 0  9995,2 52701  53.2181 285.0819 0001869  97.1357 262.9848 15.08834006 84743,6917.899,95.438,541.057,538.471,0.0
52701.0,STARLINK-4003,PAYLOAD,2023-11-25 06:22:55,15.08850285,0.0001621,53.2181,284.4835,109.3496,250.7672,0.00034657,5.233e-05,0.0,0 STARLINK-4003,1 52701U 22053AX  23329.26591478  .00005233  00000-0  34657-3 0  9999,2 52701  53.2181 284.4835 0001621 109.3496 250.7672 15.08850285 85197,6917.849,95.437,540.835,538.593,0.0
52701.0,STARLINK-4003,PAYLOAD,2023-11-25 20:41:23,15.0884979,0.0001845,53.2172,281.8096,94.3164,265.8039,0.00019867,2.876e-05,0.0,0 STARLINK-4003,1 52701U 22053AX  23329.86208221  .00002876  00000-0  19867-3 0  9992,2 52701  53.2172 281.8096 0001845  94.3164 265.8039 15.08849790 85283,6917.85,95.437,540.992,538.439,0.0
52701.0,STARLINK-4003,PAYLOAD,2023-11-26 04:38:19,15.08856118,0.0002033,53.217,280.3248,77.4121,282.7098,0.00033702,5.082e-05,0.0,0 STARLINK-4003,1 52701U 22053AX  23330.19328118  .00005082  00000-0  33702-3 0  9994,2 52701  53.2170 280.3248 0002033  77.4121 282.7098 15.08856118 84902,6917.831,95.437,541.103,538.29,0.0
52701.0,STARLINK-4003,PAYLOAD,2023-11-27 02:53:44,15.08829083,0.0001882,53.2184,276.1545,80.3921,279.7284,-0.00030578,-5.15e-05,0.0,0 STARLINK-4003,1 52701U 22053AX  23331.12065532 -.00005150  00000-0 -30578-3 0  9992,2 52701  53.2184 276.1545 0001882  80.3921 279.7284 15.08829083 85042,6917.914,95.438,541.081,538.477,0.0
52701.0,STARLINK-4003,PAYLOAD,2023-11-27 06:04:30,15.08828743,0.000179,53.2182,275.5588,92.7436,267.3761,-0.0002847,-4.815e-05,0.0,0 STARLINK-4003,1 52701U 22053AX  23331.25313529 -.00004815  00000-0 -28470-3 0  9993,2 52701  53.2182 275.5588 0001790  92.7436 267.3761 15.08828743 85490,6917.915,95.438,541.018,538.541,0.0
52701.0,STARLINK-4003,PAYLOAD,2023-11-28 02:44:29,15.08864388,0.0001767,53.217,271.6959,108.8407,251.2777,0.00022355,3.274e-05,0.0,0 STARLINK-4003,1 52701U 22053AX  23332.11423517  .00003274  00000-0  22355-3 0  9990,2 52701  53.2170 271.6959 0001767 108.8407 251.2777 15.08864388 85198,6917.806,95.436,540.893,538.448,0.0
52701.0,STARLINK-4003,PAYLOAD,2023-11-28 20:13:46,15.08839327,0.0001935,53.218,268.4275,89.8857,270.2356,0.00031322,4.7e-05,0.0,0 STARLINK-4003,1 52701U 22053AX  23332.84289456  .00004700  00000-0  31322-3 0  9991,2 52701  53.2180 268.4275 0001935  89.8857 270.2356 15.08839327 85300,6917.882,95.438,541.086,538.409,0.0
52701.0,STARLINK-4003,PAYLOAD,2023-11-29 02:35:18,15.0884375,0.0001749,53.2179,267.2362,103.5284,256.5903,0.00027281,4.057e-05,0.0,0 STARLINK-4003,1 52701U 22053AX  23333.10785237  .00004057  00000-0  27281-3 0  9993,2 52701  53.2179 267.2362 0001749 103.5284 256.5903 15.08843750 85774,6917.869,95.437,540.944,538.524,0.0
52701.0,STARLINK-4003,PAYLOAD,2023-11-30 00:50:42,15.0884381,0.0001796,53.2172,263.0731,108.7049,251.4138,-1.7112e-05,-5.6e-06,0.0,0 STARLINK-4003,1 52701U 22053AX  23334.03521019 -.00000560  00000-0 -17112-4 0  9992,2 52701  53.2172 263.0731 0001796 108.7049 251.4138 15.08843810 85488,6917.869,95.437,540.976,538.491,0.0
